[{"OBJECT_NAME":"STARLINK-5786","OBJECT_ID":"2023-042AY","EPOCH":"2026-03-09T22:00:01.999584","MEAN_MOTION":15.04557631,"ECCENTRICITY":5.951e-5,"INCLINATION":43.0009,"RA_OF_ASC_NODE":41.5614,"ARG_OF_PERICENTER":298.166,"MEAN_ANOMALY":217.9414,"EPHEMERIS_TYPE":0,"CLASSIFICATION_TYPE":"U","NORAD_CAT_ID":56032,"ELEMENT_SET_NO":999,"REV_AT_EPOCH":577,"BSTAR":0.0035088306,"MEAN_MOTION_DOT":0.00050174,"MEAN_MOTION_DDOT":0},{"OBJECT_NAME":"CZ-6A DEB","OBJECT_ID":"2022-151AJB","EPOCH":"2026-02-27T14:06:27.470880","MEAN_MOTION":15.13235807,"ECCENTRICITY":0.00651829,"INCLINATION":98.7617,"RA_OF_ASC_NODE":191.4844,"ARG_OF_PERICENTER":85.1472,"MEAN_ANOMALY":275.7194,"EPHEMERIS_TYPE":0,"CLASSIFICATION_TYPE":"U","NORAD_CAT_ID":58433,"ELEMENT_SET_NO":999,"REV_AT_EPOCH":15167,"BSTAR":0.0027921214,"MEAN_MOTION_DOT":0.00052525,"MEAN_MOTION_DDOT":0}]
